STARLINK-1008           
1 44714U 19074B   25211.11108027 -.00000409  00000+0 -85919-5 0  9993
2 44714  53.0539 105.8155 0001120  82.3588 277.7528 15.06395116315374
STARLINK-1010           
1 44716U 19074D   25211.01799641  .00125222  00000+0  13549-2 0  9998
2 44716  53.0532  79.7009 0003108 192.1319 167.9620 15.62703546315719
STARLINK-1011           
1 44717U 19074E   25211.25002315  .00072538  00000+0  41481-2 0  9997
2 44717  53.0543 125.1480 0001045 100.7649 286.1374 15.12028617315118
STARLINK-1012           
1 44718U 19074F   25210.95627361  .00000365  00000+0  43417-4 0  9990
2 44718  53.0555 106.5108 0001376  91.1778 268.9369 15.06393034315174
STARLINK-1013           
1 44719U 19074G   25210.91668981  .00275097  00000+0  90765-3 0  9993
2 44719  53.0443  67.3735 0004065 100.7183 356.3670 15.89186874  6005
STARLINK-1015           
1 44721U 19074J   25210.91668981  .00129064  00000+0  88282-3 0  9999
2 44721  53.0509  73.4998 0007172 101.1124 210.5806 15.73873240  5916
STARLINK-1017           
1 44723U 19074L   25211.08764378  .00010818  00000+0  70593-3 0  9999
2 44723  53.0536 105.5602 0003212  91.7975 268.3383 15.08353228315378
STARLINK-1019           
1 44724U 19074M   25210.95258654  .00001169  00000+0  97373-4 0  9995
2 44724  53.0559 106.5259 0001640  94.3766 265.7410 15.06396310315170
STARLINK-1020           
1 44725U 19074N   25211.15715620  .00002020  00000+0  15451-3 0  9993
2 44725  53.0543 125.6075 0001396  84.3584 275.7565 15.06395572315099
STARLINK-1021           
1 44726U 19074P   25211.25002315  .00101710  00000+0  81633-3 0  9996
2 44726  53.0491  75.8652 0008349 105.7008 183.0270 15.70186984315802
STARLINK-1029           
1 44734U 19074X   25211.25002315  .00266620  00000+0  23715-2 0  9993
2 44734  53.0574 357.9675 0006500 273.6616   0.8837 15.67128975316874
STARLINK-1030           
1 44735U 19074Y   25211.25002315  .00109730  00000+0  65331-3 0  9993
2 44735  53.0454  95.6321 0007080  91.0917 248.6128 15.77124503315526
STARLINK-1031           
1 44736U 19074Z   25211.13899992  .00037727  00000+0  12640-2 0  9996
2 44736  53.0573 115.6050 0005128  73.9452 286.2112 15.30582333315243
STARLINK-1036           
1 44741U 19074AE  25211.18664095  .00000483  00000+0  51304-4 0  9992
2 44741  53.0550 125.4772 0001359  89.4699 270.6445 15.06397630315109
STARLINK-1039           
1 44744U 19074AH  25210.24996584  .00027152  00000+0  18077-2 0  9992
2 44744  53.0536 149.6553 0002471 106.2410 253.8852 15.06949057314511
STARLINK-1042           
1 44747U 19074AL  25210.86648349  .00011987  00000+0  31341-3 0  9995
2 44747  53.0482  74.6262 0003152 152.1770 207.9403 15.39200003315648
STARLINK-1043           
1 44748U 19074AM  25211.09264793  .00000345  00000+0  42029-4 0  9991
2 44748  53.0547 145.8959 0001279  93.4919 266.6216 15.06397111314818
