[{"OBJECT_NAME":"STARLINK-1008","OBJECT_ID":"2019-074B","EPOCH":"2025-07-30T02:39:57.335328","MEAN_MOTION":15.06395116,"ECCENTRICITY":0.000112,"INCLINATION":53.0539,"RA_OF_ASC_NODE":105.8155,"ARG_OF_PERICENTER":82.3588,"MEAN_ANOMALY":277.7528,"EPHEMERIS_TYPE":0,"CLASSIFICATION_TYPE":"U","NORAD_CAT_ID":44714,"ELEMENT_SET_NO":999,"REV_AT_EPOCH":31537,"BSTAR":-8.5919e-6,"MEAN_MOTION_DOT":-4.09e-6,"MEAN_MOTION_DDOT":0},{"OBJECT_NAME":"STARLINK-1010","OBJECT_ID":"2019-074D","EPOCH":"2025-07-30T00:25:54.889824","MEAN_MOTION":15.62703546,"ECCENTRICITY":0.0003108,"INCLINATION":53.0532,"RA_OF_ASC_NODE":79.7009,"ARG_OF_PERICENTER":192.1319,"MEAN_ANOMALY":167.962,"EPHEMERIS_TYPE":0,"CLASSIFICATION_TYPE":"U","NORAD_CAT_ID":44716,"ELEMENT_SET_NO":999,"REV_AT_EPOCH":31571,"BSTAR":0.0013549,"MEAN_MOTION_DOT":0.00125222,"MEAN_MOTION_DDOT":0},{"OBJECT_NAME":"STARLINK-1011","OBJECT_ID":"2019-074E","EPOCH":"2025-07-30T06:00:02.000160","MEAN_MOTION":15.12028617,"ECCENTRICITY":0.0001045,"INCLINATION":53.0543,"RA_OF_ASC_NODE":125.148,"ARG_OF_PERICENTER":100.7649,"MEAN_ANOMALY":286.1374,"EPHEMERIS_TYPE":0,"CLASSIFICATION_TYPE":"U","NORAD_CAT_ID":44717,"ELEMENT_SET_NO":999,"REV_AT_EPOCH":31511,"BSTAR":0.0041481,"MEAN_MOTION_DOT":0.00072538,"MEAN_MOTION_DDOT":0},{"OBJECT_NAME":"STARLINK-1012","OBJECT_ID":"2019-074F","EPOCH":"2025-07-29T22:57:02.039904","MEAN_MOTION":15.06393034,"ECCENTRICITY":0.0001376,"INCLINATION":53.0555,"RA_OF_ASC_NODE":106.5108,"ARG_OF_PERICENTER":91.1778,"MEAN_ANOMALY":268.9369,"EPHEMERIS_TYPE":0,"CLASSIFICATION_TYPE":"U","NORAD_CAT_ID":44718,"ELEMENT_SET_NO":999,"REV_AT_EPOCH":31517,"BSTAR":4.3417e-5,"MEAN_MOTION_DOT":3.65e-6,"MEAN_MOTION_DDOT":0},{"OBJECT_NAME":"STARLINK-1013","OBJECT_ID":"2019-074G","EPOCH":"2025-07-29T22:00:01.999584","MEAN_MOTION":15.89186874,"ECCENTRICITY":0.0004065,"INCLINATION":53.0443,"RA_OF_ASC_NODE":67.3735,"ARG_OF_PERICENTER":100.7183,"MEAN_ANOMALY":356.367,"EPHEMERIS_TYPE":0,"CLASSIFICATION_TYPE":"U","NORAD_CAT_ID":44719,"ELEMENT_SET_NO":999,"REV_AT_EPOCH":600,"BSTAR":0.00090765,"MEAN_MOTION_DOT":0.00275097,"MEAN_MOTION_DDOT":0},{"OBJECT_NAME":"STARLINK-1015","OBJECT_ID":"2019-074J","EPOCH":"2025-07-29T22:00:01.999584","MEAN_MOTION":15.7387324,"ECCENTRICITY":0.0007172,"INCLINATION":53.0509,"RA_OF_ASC_NODE":73.4998,"ARG_OF_PERICENTER":101.1124,"MEAN_ANOMALY":210.5806,"EPHEMERIS_TYPE":0,"CLASSIFICATION_TYPE":"U","NORAD_CAT_ID":44721,"ELEMENT_SET_NO":999,"REV_AT_EPOCH":591,"BSTAR":0.00088282,"MEAN_MOTION_DOT":0.00129064,"MEAN_MOTION_DDOT":0},{"OBJECT_NAME":"STARLINK-1017","OBJECT_ID":"2019-074L","EPOCH":"2025-07-30T02:06:12.422592","MEAN_MOTION":15.08353228,"ECCENTRICITY":0.0003212,"INCLINATION":53.0536,"RA_OF_ASC_NODE":105.5602,"ARG_OF_PERICENTER":91.7975,"MEAN_ANOMALY":268.3383,"EPHEMERIS_TYPE":0,"CLASSIFICATION_TYPE":"U","NORAD_CAT_ID":44723,"ELEMENT_SET_NO":999,"REV_AT_EPOCH":31537,"BSTAR":0.00070593,"MEAN_MOTION_DOT":0.00010818,"MEAN_MOTION_DDOT":0},{"OBJECT_NAME":"STARLINK-1019","OBJECT_ID":"2019-074M","EPOCH":"2025-07-29T22:51:43.477056","MEAN_MOTION":15.0639631,"ECCENTRICITY":0.000164,"INCLINATION":53.0559,"RA_OF_ASC_NODE":106.5259,"ARG_OF_PERICENTER":94.3766,"MEAN_ANOMALY":265.741,"EPHEMERIS_TYPE":0,"CLASSIFICATION_TYPE":"U","NORAD_CAT_ID":44724,"ELEMENT_SET_NO":999,"REV_AT_EPOCH":31517,"BSTAR":9.7373e-5,"MEAN_MOTION_DOT":1.169e-5,"MEAN_MOTION_DDOT":0},{"OBJECT_NAME":"STARLINK-1020","OBJECT_ID":"2019-074N","EPOCH":"2025-07-30T03:46:18.295680","MEAN_MOTION":15.06395572,"ECCENTRICITY":0.0001396,"INCLINATION":53.0543,"RA_OF_ASC_NODE":125.6075,"ARG_OF_PERICENTER":84.3584,"MEAN_ANOMALY":275.7565,"EPHEMERIS_TYPE":0,"CLASSIFICATION_TYPE":"U","NORAD_CAT_ID":44725,"ELEMENT_SET_NO":999,"REV_AT_EPOCH":31509,"BSTAR":0.00015451,"MEAN_MOTION_DOT":2.02e-5,"MEAN_MOTION_DDOT":0},{"OBJECT_NAME":"STARLINK-1021","OBJECT_ID":"2019-074P","EPOCH":"2025-07-30T06:00:02.000160","MEAN_MOTION":15.70186984,"ECCENTRICITY":0.0008349,"INCLINATION":53.0491,"RA_OF_ASC_NODE":75.8652,"ARG_OF_PERICENTER":105.7008,"MEAN_ANOMALY":183.027,"EPHEMERIS_TYPE":0,"CLASSIFICATION_TYPE":"U","NORAD_CAT_ID":44726,"ELEMENT_SET_NO":999,"REV_AT_EPOCH":31580,"BSTAR":0.00081633,"MEAN_MOTION_DOT":0.0010171,"MEAN_MOTION_DDOT":0},{"OBJECT_NAME":"STARLINK-1029","OBJECT_ID":"2019-074X","EPOCH":"2025-07-30T06:00:02.000160","MEAN_MOTION":15.67128975,"ECCENTRICITY":0.00065,"INCLINATION":53.0574,"RA_OF_ASC_NODE":357.9675,"ARG_OF_PERICENTER":273.6616,"MEAN_ANOMALY":0.8837,"EPHEMERIS_TYPE":0,"CLASSIFICATION_TYPE":"U","NORAD_CAT_ID":44734,"ELEMENT_SET_NO":999,"REV_AT_EPOCH":31687,"BSTAR":0.0023715,"MEAN_MOTION_DOT":0.0026662,"MEAN_MOTION_DDOT":0},{"OBJECT_NAME":"STARLINK-1030","OBJECT_ID":"2019-074Y","EPOCH":"2025-07-30T06:00:02.000160","MEAN_MOTION":15.77124503,"ECCENTRICITY":0.000708,"INCLINATION":53.0454,"RA_OF_ASC_NODE":95.6321,"ARG_OF_PERICENTER":91.0917,"MEAN_ANOMALY":248.6128,"EPHEMERIS_TYPE":0,"CLASSIFICATION_TYPE":"U","NORAD_CAT_ID":44735,"ELEMENT_SET_NO":999,"REV_AT_EPOCH":31552,"BSTAR":0.00065331,"MEAN_MOTION_DOT":0.0010973,"MEAN_MOTION_DDOT":0},{"OBJECT_NAME":"STARLINK-1031","OBJECT_ID":"2019-074Z","EPOCH":"2025-07-30T03:20:09.593088","MEAN_MOTION":15.30582333,"ECCENTRICITY":0.0005128,"INCLINATION":53.0573,"RA_OF_ASC_NODE":115.605,"ARG_OF_PERICENTER":73.9452,"MEAN_ANOMALY":286.2112,"EPHEMERIS_TYPE":0,"CLASSIFICATION_TYPE":"U","NORAD_CAT_ID":44736,"ELEMENT_SET_NO":999,"REV_AT_EPOCH":31524,"BSTAR":0.001264,"MEAN_MOTION_DOT":0.00037727,"MEAN_MOTION_DDOT":0},{"OBJECT_NAME":"STARLINK-1036","OBJECT_ID":"2019-074AE","EPOCH":"2025-07-30T04:28:45.778080","MEAN_MOTION":15.0639763,"ECCENTRICITY":0.0001359,"INCLINATION":53.055,"RA_OF_ASC_NODE":125.4772,"ARG_OF_PERICENTER":89.4699,"MEAN_ANOMALY":270.6445,"EPHEMERIS_TYPE":0,"CLASSIFICATION_TYPE":"U","NORAD_CAT_ID":44741,"ELEMENT_SET_NO":999,"REV_AT_EPOCH":31510,"BSTAR":5.1304e-5,"MEAN_MOTION_DOT":4.83e-6,"MEAN_MOTION_DDOT":0},{"OBJECT_NAME":"STARLINK-1039","OBJECT_ID":"2019-074AH","EPOCH":"2025-07-29T05:59:57.048576","MEAN_MOTION":15.06949057,"ECCENTRICITY":0.0002471,"INCLINATION":53.0536,"RA_OF_ASC_NODE":149.6553,"ARG_OF_PERICENTER":106.241,"MEAN_ANOMALY":253.8852,"EPHEMERIS_TYPE":0,"CLASSIFICATION_TYPE":"U","NORAD_CAT_ID":44744,"ELEMENT_SET_NO":999,"REV_AT_EPOCH":31451,"BSTAR":0.0018077,"MEAN_MOTION_DOT":0.00027152,"MEAN_MOTION_DDOT":0},{"OBJECT_NAME":"STARLINK-1042","OBJECT_ID":"2019-074AL","EPOCH":"2025-07-29T20:47:44.173536","MEAN_MOTION":15.39200003,"ECCENTRICITY":0.0003152,"INCLINATION":53.0482,"RA_OF_ASC_NODE":74.6262,"ARG_OF_PERICENTER":152.177,"MEAN_ANOMALY":207.9403,"EPHEMERIS_TYPE":0,"CLASSIFICATION_TYPE":"U","NORAD_CAT_ID":44747,"ELEMENT_SET_NO":999,"REV_AT_EPOCH":31564,"BSTAR":0.00031341,"MEAN_MOTION_DOT":0.00011987,"MEAN_MOTION_DDOT":0},{"OBJECT_NAME":"STARLINK-1043","OBJECT_ID":"2019-074AM","EPOCH":"2025-07-30T02:13:24.781152","MEAN_MOTION":15.06397111,"ECCENTRICITY":0.0001279,"INCLINATION":53.0547,"RA_OF_ASC_NODE":145.8959,"ARG_OF_PERICENTER":93.4919,"MEAN_ANOMALY":266.6216,"EPHEMERIS_TYPE":0,"CLASSIFICATION_TYPE":"U","NORAD_CAT_ID":44748,"ELEMENT_SET_NO":999,"REV_AT_EPOCH":31481,"BSTAR":4.2029e-5,"MEAN_MOTION_DOT":3.45e-6,"MEAN_MOTION_DDOT":0}]
